IRIDIUM 173             
1 43925U 19002D   26087.88313549  .00000204  00000+0  65829-4 0  9998
2 43925  86.4004  27.1127 0002071  85.8618 274.2815 14.34218474377445
IRIDIUM 169             
1 43926U 19002E   26087.84577358  .00000369  00000+0  11427-3 0  9991
2 43926  86.4199  58.7698 0001852 105.0059 255.1344 14.38608583378673
IRIDIUM 172             
1 43927U 19002F   26087.87679353  .00000111  00000+0  32685-4 0  9998
2 43927  86.4006  27.1232 0002219  81.3463 278.7984 14.34218059377455
IRIDIUM 175             
1 43928U 19002G   26087.86959053  .00000368  00000+0  10280-3 0  9996
2 43928  86.4532 324.1141 0005019 112.4005 247.7728 14.43580760387395
IRIDIUM 171             
1 43929U 19002H   26087.85776485  .00000243  00000+0  79577-4 0  9999
2 43929  86.4013  27.4285 0002300  89.2324 270.9135 14.34218027377446
IRIDIUM 170             
1 43930U 19002J   26087.82735950  .00001053  00000+0  16316-3 0  9991
2 43930  86.6127  27.1265 0002469  82.7711 277.3786 14.72248992387434
IRIDIUM 167             
1 43931U 19002K   26087.92119030  .00000299  00000+0  99633-4 0  9993
2 43931  86.4005  27.1263 0002282  94.5543 265.5913 14.34219401377456
IRIDIUM 181             
1 56726U 23068S   26087.75368989  .00000264  00000+0  72446-4 0  9991
2 56726  86.4444  90.4206 0002548  84.9479 275.2013 14.43309215150838
IRIDIUM 177             
1 56727U 23068T   26087.80910999  .00001384  00000+0  17865-3 0  9999
2 56727  86.2021   6.9534 0002162  85.3831 274.7637 14.80219209154477
IRIDIUM 174             
1 56728U 23068U   26087.88294688  .00000208  00000+0  29048-4 0  9999
2 56728  86.6135  27.2425 0002457  81.0096 279.1399 14.72253945154207
IRIDIUM 178             
1 56729U 23068V   26087.93338490  .00001459  00000+0  18858-3 0  9991
2 56729  86.6513  58.8871 0002842  89.7441 270.4107 14.80234188154499
IRIDIUM 179             
1 56730U 23068W   26087.86038974  .00001425  00000+0  18415-3 0  9991
2 56730  86.6735  67.6644 0002636  96.3725 263.7797 14.80224997154489
