[{"OBJECT_NAME":"IRIDIUM 173","OBJECT_ID":"2019-002D","EPOCH":"2026-03-28T21:11:42.906336","MEAN_MOTION":14.34218474,"ECCENTRICITY":0.00020718,"INCLINATION":86.4004,"RA_OF_ASC_NODE":27.1127,"ARG_OF_PERICENTER":85.8618,"MEAN_ANOMALY":274.2815,"EPHEMERIS_TYPE":0,"CLASSIFICATION_TYPE":"U","NORAD_CAT_ID":43925,"ELEMENT_SET_NO":999,"REV_AT_EPOCH":37744,"BSTAR":6.5829126e-5,"MEAN_MOTION_DOT":2.04e-6,"MEAN_MOTION_DDOT":0},{"OBJECT_NAME":"IRIDIUM 169","OBJECT_ID":"2019-002E","EPOCH":"2026-03-28T20:17:54.837312","MEAN_MOTION":14.38608583,"ECCENTRICITY":0.0001852,"INCLINATION":86.4199,"RA_OF_ASC_NODE":58.7698,"ARG_OF_PERICENTER":105.0059,"MEAN_ANOMALY":255.1344,"EPHEMERIS_TYPE":0,"CLASSIFICATION_TYPE":"U","NORAD_CAT_ID":43926,"ELEMENT_SET_NO":999,"REV_AT_EPOCH":37867,"BSTAR":0.00011427121,"MEAN_MOTION_DOT":3.69e-6,"MEAN_MOTION_DDOT":0},{"OBJECT_NAME":"IRIDIUM 172","OBJECT_ID":"2019-002F","EPOCH":"2026-03-28T21:02:34.960992","MEAN_MOTION":14.34218059,"ECCENTRICITY":0.00022199,"INCLINATION":86.4006,"RA_OF_ASC_NODE":27.1232,"ARG_OF_PERICENTER":81.3463,"MEAN_ANOMALY":278.7984,"EPHEMERIS_TYPE":0,"CLASSIFICATION_TYPE":"U","NORAD_CAT_ID":43927,"ELEMENT_SET_NO":999,"REV_AT_EPOCH":37745,"BSTAR":3.2684667e-5,"MEAN_MOTION_DOT":1.11e-6,"MEAN_MOTION_DDOT":0},{"OBJECT_NAME":"IRIDIUM 175","OBJECT_ID":"2019-002G","EPOCH":"2026-03-28T20:52:12.621792","MEAN_MOTION":14.4358076,"ECCENTRICITY":0.00050197,"INCLINATION":86.4532,"RA_OF_ASC_NODE":324.1141,"ARG_OF_PERICENTER":112.4005,"MEAN_ANOMALY":247.7728,"EPHEMERIS_TYPE":0,"CLASSIFICATION_TYPE":"U","NORAD_CAT_ID":43928,"ELEMENT_SET_NO":999,"REV_AT_EPOCH":38739,"BSTAR":0.00010280468,"MEAN_MOTION_DOT":3.68e-6,"MEAN_MOTION_DDOT":0},{"OBJECT_NAME":"IRIDIUM 171","OBJECT_ID":"2019-002H","EPOCH":"2026-03-28T20:35:10.883040","MEAN_MOTION":14.34218027,"ECCENTRICITY":0.00023,"INCLINATION":86.4013,"RA_OF_ASC_NODE":27.4285,"ARG_OF_PERICENTER":89.2324,"MEAN_ANOMALY":270.9135,"EPHEMERIS_TYPE":0,"CLASSIFICATION_TYPE":"U","NORAD_CAT_ID":43929,"ELEMENT_SET_NO":999,"REV_AT_EPOCH":37744,"BSTAR":7.9577036e-5,"MEAN_MOTION_DOT":2.43e-6,"MEAN_MOTION_DDOT":0},{"OBJECT_NAME":"IRIDIUM 170","OBJECT_ID":"2019-002J","EPOCH":"2026-03-28T19:51:23.860800","MEAN_MOTION":14.72248992,"ECCENTRICITY":0.00024694,"INCLINATION":86.6127,"RA_OF_ASC_NODE":27.1265,"ARG_OF_PERICENTER":82.7711,"MEAN_ANOMALY":277.3786,"EPHEMERIS_TYPE":0,"CLASSIFICATION_TYPE":"U","NORAD_CAT_ID":43930,"ELEMENT_SET_NO":999,"REV_AT_EPOCH":38743,"BSTAR":0.00016315617,"MEAN_MOTION_DOT":1.053e-5,"MEAN_MOTION_DDOT":0},{"OBJECT_NAME":"IRIDIUM 167","OBJECT_ID":"2019-002K","EPOCH":"2026-03-28T22:06:30.841920","MEAN_MOTION":14.34219401,"ECCENTRICITY":0.00022827,"INCLINATION":86.4005,"RA_OF_ASC_NODE":27.1263,"ARG_OF_PERICENTER":94.5543,"MEAN_ANOMALY":265.5913,"EPHEMERIS_TYPE":0,"CLASSIFICATION_TYPE":"U","NORAD_CAT_ID":43931,"ELEMENT_SET_NO":999,"REV_AT_EPOCH":37745,"BSTAR":9.9632894e-5,"MEAN_MOTION_DOT":2.99e-6,"MEAN_MOTION_DDOT":0},{"OBJECT_NAME":"IRIDIUM 181","OBJECT_ID":"2023-068S","EPOCH":"2026-03-28T18:05:18.806496","MEAN_MOTION":14.43309215,"ECCENTRICITY":0.0002548,"INCLINATION":86.4444,"RA_OF_ASC_NODE":90.4206,"ARG_OF_PERICENTER":84.9479,"MEAN_ANOMALY":275.2013,"EPHEMERIS_TYPE":0,"CLASSIFICATION_TYPE":"U","NORAD_CAT_ID":56726,"ELEMENT_SET_NO":999,"REV_AT_EPOCH":15083,"BSTAR":7.2446191e-5,"MEAN_MOTION_DOT":2.64e-6,"MEAN_MOTION_DDOT":0},{"OBJECT_NAME":"IRIDIUM 177","OBJECT_ID":"2023-068T","EPOCH":"2026-03-28T19:25:07.103136","MEAN_MOTION":14.80219209,"ECCENTRICITY":0.00021625,"INCLINATION":86.2021,"RA_OF_ASC_NODE":6.9534,"ARG_OF_PERICENTER":85.3831,"MEAN_ANOMALY":274.7637,"EPHEMERIS_TYPE":0,"CLASSIFICATION_TYPE":"U","NORAD_CAT_ID":56727,"ELEMENT_SET_NO":999,"REV_AT_EPOCH":15447,"BSTAR":0.00017865342,"MEAN_MOTION_DOT":1.384e-5,"MEAN_MOTION_DDOT":0},{"OBJECT_NAME":"IRIDIUM 174","OBJECT_ID":"2023-068U","EPOCH":"2026-03-28T21:11:26.610432","MEAN_MOTION":14.72253945,"ECCENTRICITY":0.00024576,"INCLINATION":86.6135,"RA_OF_ASC_NODE":27.2425,"ARG_OF_PERICENTER":81.0096,"MEAN_ANOMALY":279.1399,"EPHEMERIS_TYPE":0,"CLASSIFICATION_TYPE":"U","NORAD_CAT_ID":56728,"ELEMENT_SET_NO":999,"REV_AT_EPOCH":15420,"BSTAR":2.9047555e-5,"MEAN_MOTION_DOT":2.08e-6,"MEAN_MOTION_DDOT":0},{"OBJECT_NAME":"IRIDIUM 178","OBJECT_ID":"2023-068V","EPOCH":"2026-03-28T22:24:04.455360","MEAN_MOTION":14.80234188,"ECCENTRICITY":0.00028421,"INCLINATION":86.6513,"RA_OF_ASC_NODE":58.8871,"ARG_OF_PERICENTER":89.7441,"MEAN_ANOMALY":270.4107,"EPHEMERIS_TYPE":0,"CLASSIFICATION_TYPE":"U","NORAD_CAT_ID":56729,"ELEMENT_SET_NO":999,"REV_AT_EPOCH":15449,"BSTAR":0.00018858111,"MEAN_MOTION_DOT":1.459e-5,"MEAN_MOTION_DDOT":0},{"OBJECT_NAME":"IRIDIUM 179","OBJECT_ID":"2023-068W","EPOCH":"2026-03-28T20:38:57.673536","MEAN_MOTION":14.80224997,"ECCENTRICITY":0.00026369,"INCLINATION":86.6735,"RA_OF_ASC_NODE":67.6644,"ARG_OF_PERICENTER":96.3725,"MEAN_ANOMALY":263.7797,"EPHEMERIS_TYPE":0,"CLASSIFICATION_TYPE":"U","NORAD_CAT_ID":56730,"ELEMENT_SET_NO":999,"REV_AT_EPOCH":15448,"BSTAR":0.00018414591,"MEAN_MOTION_DOT":1.425e-5,"MEAN_MOTION_DDOT":0}]
